{
  "type": "FeatureCollection",
  "features": [
    {
      "type": "Feature",
      "properties": {
        "norad_id": 66174,
        "name": "HTV-X1",
        "group": "stations",
        "lat": -10.68841277141089,
        "lon": 63.97268119249388,
        "alt_km": 417.4815111795733,
        "timestamp": "2025-12-26T20:30:44.734611+00:00",
        "meta_object_name": "HTV-X1",
        "meta_object_id": "2025-241A",
        "meta_epoch": "2025-12-26T12:50:01.193856",
        "meta_mean_motion": 15.49844261,
        "meta_eccentricity": 0.00032307,
        "meta_inclination": 51.632,
        "meta_ra_of_asc_node": 74.1581,
        "meta_arg_of_pericenter": 305.5588,
        "meta_mean_anomaly": 54.5099,
        "meta_ephemeris_type": 0,
        "meta_classification_type": "U",
        "meta_norad_cat_id": 66174,
        "meta_element_set_no": 999,
        "meta_rev_at_epoch": 51,
        "meta_bstar": 0.00025381537,
        "meta_mean_motion_dot": 0.00013978,
        "meta_mean_motion_ddot": 0,
        "tle_line1": "1 66174U 25241A   25360.53473604  .00013978  00000+0  25382-3 0  9996",
        "tle_line2": "2 66174  51.6320  74.1581 0003230 305.5588  54.5099 15.49844261   513"
      },
      "geometry": {
        "type": "Point",
        "coordinates": [
          63.97268119249388,
          -10.68841277141089
        ]
      }
    },
    {
      "type": "Feature",
      "properties": {
        "norad_id": 66515,
        "name": "SZ-21 MODULE",
        "group": "stations",
        "lat": 4.841145790072759,
        "lon": -64.60457506616393,
        "alt_km": 374.5239515227722,
        "timestamp": "2025-12-26T20:30:44.734620+00:00",
        "meta_object_name": "SZ-21 MODULE",
        "meta_object_id": "2025-246C",
        "meta_epoch": "2025-12-25T04:36:53.601984",
        "meta_mean_motion": 15.63137537,
        "meta_eccentricity": 0.0004589,
        "meta_inclination": 41.4767,
        "meta_ra_of_asc_node": 300.0489,
        "meta_arg_of_pericenter": 327.9877,
        "meta_mean_anomaly": 32.0683,
        "meta_ephemeris_type": 0,
        "meta_classification_type": "U",
        "meta_norad_cat_id": 66515,
        "meta_element_set_no": 999,
        "meta_rev_at_epoch": 639,
        "meta_bstar": 0.00031272,
        "meta_mean_motion_dot": 0.00029146,
        "meta_mean_motion_ddot": 0,
        "tle_line1": "1 66515U 25246C   25359.19228706  .00029146  00000+0  31272-3 0  9990",
        "tle_line2": "2 66515  41.4767 300.0489 0004589 327.9877  32.0683 15.63137537  6398"
      },
      "geometry": {
        "type": "Point",
        "coordinates": [
          -64.60457506616393,
          4.841145790072759
        ]
      }
    },
    {
      "type": "Feature",
      "properties": {
        "norad_id": 66645,
        "name": "SHENZHOU-22",
        "group": "stations",
        "lat": -39.3330816509906,
        "lon": -137.1371167146653,
        "alt_km": 395.3618503270063,
        "timestamp": "2025-12-26T20:30:44.734630+00:00",
        "meta_object_name": "SHENZHOU-22",
        "meta_object_id": "2025-272A",
        "meta_epoch": "2025-12-26T05:27:30.670848",
        "meta_mean_motion": 15.59708409,
        "meta_eccentricity": 0.00085179,
        "meta_inclination": 41.468,
        "meta_ra_of_asc_node": 294.7909,
        "meta_arg_of_pericenter": 149.5046,
        "meta_mean_anomaly": 210.6289,
        "meta_ephemeris_type": 0,
        "meta_classification_type": "U",
        "meta_norad_cat_id": 66645,
        "meta_element_set_no": 999,
        "meta_rev_at_epoch": 26598,
        "meta_bstar": 0.00023601706,
        "meta_mean_motion_dot": 0.00019151,
        "meta_mean_motion_ddot": 0,
        "tle_line1": "1 66645U 25272A   25360.22743832  .00019151  00000+0  23602-3 0  9994",
        "tle_line2": "2 66645  41.4680 294.7909 0008517 149.5046 210.6289 15.59708409265988"
      },
      "geometry": {
        "type": "Point",
        "coordinates": [
          -137.1371167146653,
          -39.3330816509906
        ]
      }
    },
    {
      "type": "Feature",
      "properties": {
        "norad_id": 66664,
        "name": "SOYUZ-MS 28",
        "group": "stations",
        "lat": -10.688411418921982,
        "lon": 63.972682313240334,
        "alt_km": 417.4815110765485,
        "timestamp": "2025-12-26T20:30:44.734638+00:00",
        "meta_object_name": "SOYUZ-MS 28",
        "meta_object_id": "2025-275A",
        "meta_epoch": "2025-12-26T12:50:01.193856",
        "meta_mean_motion": 15.49844261,
        "meta_eccentricity": 0.00032307,
        "meta_inclination": 51.632,
        "meta_ra_of_asc_node": 74.1581,
        "meta_arg_of_pericenter": 305.5588,
        "meta_mean_anomaly": 54.5099,
        "meta_ephemeris_type": 0,
        "meta_classification_type": "U",
        "meta_norad_cat_id": 66664,
        "meta_element_set_no": 999,
        "meta_rev_at_epoch": 128,
        "meta_bstar": 0.00025381537,
        "meta_mean_motion_dot": 0.00013978,
        "meta_mean_motion_ddot": 0,
        "tle_line1": "1 66664U 25275A   25360.53473604  .00013978  00000+0  25382-3 0  9997",
        "tle_line2": "2 66664  51.6320  74.1581 0003230 305.5588  54.5099 15.49844261  1282"
      },
      "geometry": {
        "type": "Point",
        "coordinates": [
          63.972682313240334,
          -10.688411418921982
        ]
      }
    },
    {
      "type": "Feature",
      "properties": {
        "norad_id": 66906,
        "name": "1998-067XS",
        "group": "stations",
        "lat": 50.52014964877215,
        "lon": 146.48113783698355,
        "alt_km": 407.6163554091763,
        "timestamp": "2025-12-26T20:30:44.734648+00:00",
        "meta_object_name": "1998-067XS",
        "meta_object_id": "1998-067XS",
        "meta_epoch": "2025-12-26T10:53:34.755072",
        "meta_mean_motion": 15.51311404,
        "meta_eccentricity": 0.00026478,
        "meta_inclination": 51.6324,
        "meta_ra_of_asc_node": 74.3703,
        "meta_arg_of_pericenter": 272.6697,
        "meta_mean_anomaly": 87.3989,
        "meta_ephemeris_type": 0,
        "meta_classification_type": "U",
        "meta_norad_cat_id": 66906,
        "meta_element_set_no": 999,
        "meta_rev_at_epoch": 374,
        "meta_bstar": 0.00044869141,
        "meta_mean_motion_dot": 0.00026457,
        "meta_mean_motion_ddot": 0,
        "tle_line1": "1 66906U 98067XS  25360.45387448  .00026457  00000+0  44869-3 0  9993",
        "tle_line2": "2 66906  51.6324  74.3703 0002647 272.6697  87.3989 15.51311404  3745"
      },
      "geometry": {
        "type": "Point",
        "coordinates": [
          146.48113783698355,
          50.52014964877215
        ]
      }
    },
    {
      "type": "Feature",
      "properties": {
        "norad_id": 66907,
        "name": "1998-067XT",
        "group": "stations",
        "lat": 11.771079713012,
        "lon": -117.30032638835905,
        "alt_km": 408.59623545929844,
        "timestamp": "2025-12-26T20:30:44.734657+00:00",
        "meta_object_name": "1998-067XT",
        "meta_object_id": "1998-067XT",
        "meta_epoch": "2025-12-26T12:05:04.890912",
        "meta_mean_motion": 15.53165234,
        "meta_eccentricity": 0.00038158,
        "meta_inclination": 51.6314,
        "meta_ra_of_asc_node": 73.9516,
        "meta_arg_of_pericenter": 309.8326,
        "meta_mean_anomaly": 50.2329,
        "meta_ephemeris_type": 0,
        "meta_classification_type": "U",
        "meta_norad_cat_id": 66907,
        "meta_element_set_no": 999,
        "meta_rev_at_epoch": 375,
        "meta_bstar": 0.00096731691,
        "meta_mean_motion_dot": 0.00061851,
        "meta_mean_motion_ddot": 0,
        "tle_line1": "1 66907U 98067XT  25360.50352883  .00061851  00000+0  96732-3 0  9998",
        "tle_line2": "2 66907  51.6314  73.9516 0003815 309.8326  50.2329 15.53165234  3750"
      },
      "geometry": {
        "type": "Point",
        "coordinates": [
          -117.30032638835905,
          11.771079713012
        ]
      }
    },
    {
      "type": "Feature",
      "properties": {
        "norad_id": 66908,
        "name": "1998-067XU",
        "group": "stations",
        "lat": 6.7422865110268875,
        "lon": -113.18623744196047,
        "alt_km": 408.96273092289084,
        "timestamp": "2025-12-26T20:30:44.734666+00:00",
        "meta_object_name": "1998-067XU",
        "meta_object_id": "1998-067XU",
        "meta_epoch": "2025-12-26T12:03:26.030304",
        "meta_mean_motion": 15.53224138,
        "meta_eccentricity": 0.00038598,
        "meta_inclination": 51.6314,
        "meta_ra_of_asc_node": 73.9431,
        "meta_arg_of_pericenter": 307.9643,
        "meta_mean_anomaly": 52.0999,
        "meta_ephemeris_type": 0,
        "meta_classification_type": "U",
        "meta_norad_cat_id": 66908,
        "meta_element_set_no": 999,
        "meta_rev_at_epoch": 375,
        "meta_bstar": 0.00089246936,
        "meta_mean_motion_dot": 0.00057117,
        "meta_mean_motion_ddot": 0,
        "tle_line1": "1 66908U 98067XU  25360.50238461  .00057117  00000+0  89247-3 0  9997",
        "tle_line2": "2 66908  51.6314  73.9431 0003859 307.9643  52.0999 15.53224138  3758"
      },
      "geometry": {
        "type": "Point",
        "coordinates": [
          -113.18623744196047,
          6.7422865110268875
        ]
      }
    }
  ]
}